NORAD_CAT_ID,OBJECT_NAME,OBJECT_TYPE,EPOCH,MEAN_MOTION,ECCENTRICITY,INCLINATION,RA_OF_ASC_NODE,ARG_OF_PERICENTER,MEAN_ANOMALY,BSTAR,MEAN_MOTION_DOT,MEAN_MOTION_DDOT,TLE_LINE0,TLE_LINE1,TLE_LINE2,SEMIMAJOR_AXIS,PERIOD,APOGEE,PERIGEE,DECAYED
51747.0,STARLINK-3446,PAYLOAD,2022-10-07 11:13:02,15.08847773,0.0001641,53.2184,167.1056,50.9092,309.2046,0.00037186,5.636e-05,0.0,0 STARLINK-3446,1 51747U 22016AK  22280.46739563  .00005636  00000-0  37186-3 0  9990,2 51747  53.2184 167.1056 0001641  50.9092 309.2046 15.08847773 36106,6917.857,95.437,540.857,538.586,0.0
51747.0,STARLINK-3446,PAYLOAD,2022-10-07 20:45:22,15.08832564,0.0002275999999999,53.2183,165.3238,35.4709,324.6435,3.9242e-05,3.36e-06,0.0,0 STARLINK-3446,1 51747U 22016AK  22280.86484505  .00000336  00000-0  39242-4 0  9995,2 51747  53.2183 165.3238 0002276  35.4709 324.6435 15.08832564 35031,6917.903,95.438,541.3430000000002,538.194,0.0
51747.0,STARLINK-3446,PAYLOAD,2022-10-08 11:03:50,15.08838099,0.0001618,53.2181,162.6441,48.5278,311.5853,0.00010346,1.359e-05,0.0,0 STARLINK-3446,1 51747U 22016AK  22281.46100193  .00001359  00000-0  10346-3 0  9999,2 51747  53.2181 162.6441 0001618  48.5278 311.5853 15.08838099 35128,6917.886,95.438,540.871,538.632,0.0
51747.0,STARLINK-3446,PAYLOAD,2022-10-08 20:36:09,15.08830347,0.0001601,53.218,160.86,53.4426,306.6713,4.9395e-06,-2.09e-06,0.0,0 STARLINK-3446,1 51747U 22016AK  22281.85844743 -.00000209  00000-0  49395-5 0  9990,2 51747  53.2180 160.8600 0001601  53.4426 306.6713 15.08830347 35180,6917.91,95.438,540.882,538.6669999999998,0.0
51747.0,STARLINK-3446,PAYLOAD,2022-10-08 23:46:56,15.08830484,0.0001618,53.2185,160.2648,51.2876,308.8261,7.9152e-05,9.72e-06,0.0,0 STARLINK-3446,1 51747U 22016AK  22281.99092935  .00000972  00000-0  79152-4 0  9992,2 51747  53.2185 160.2648 0001618  51.2876 308.8261 15.08830484 36336,6917.909000000002,95.438,540.894,538.655,0.0
51747.0,STARLINK-3446,PAYLOAD,2022-10-09 10:54:39,15.08819278,0.0001819,53.2184,158.1854,45.1987,314.9153,-0.00010438,-1.948e-05,0.0,0 STARLINK-3446,1 51747U 22016AK  22282.45462083 -.00001948  00000-0 -10438-3 0  9996,2 51747  53.2184 158.1854 0001819  45.1987 314.9153 15.08819278 36402,6917.944,95.439,541.067,538.55,0.0
51747.0,STARLINK-3446,PAYLOAD,2022-10-09 12:30:02,15.08821243,0.0001773,53.2185,157.8882,43.919,316.1943,-6.217399999999999e-05,-1.277e-05,0.0,0 STARLINK-3446,1 51747U 22016AK  22282.52086069 -.00001277  00000-0 -62174-4 0  9990,2 51747  53.2185 157.8882 0001773  43.9190 316.1943 15.08821243 35282,6917.938,95.439,541.029,538.576,0.0
51747.0,STARLINK-3446,PAYLOAD,2022-10-09 17:16:11,15.08832012,0.000192,53.2175,156.9955,48.1128,312.0028,0.00021522,3.138e-05,0.0,0 STARLINK-3446,1 51747U 22016AK  22282.71957980  .00003138  00000-0  21522-3 0  9997,2 51747  53.2175 156.9955 0001920  48.1128 312.0028 15.08832012 36448,6917.905,95.438,541.0980000000002,538.442,0.0
51747.0,STARLINK-3446,PAYLOAD,2022-10-09 20:26:57,15.0883954,0.0001757,53.218,156.4002,47.7412,312.3729,0.00039492,6.003e-05,0.0,0 STARLINK-3446,1 51747U 22016AK  22282.85205819  .00006003  00000-0  39492-3 0  9998,2 51747  53.2180 156.4002 0001757  47.7412 312.3729 15.08839540 35332,6917.882,95.438,540.962,538.531,0.0
51747.0,STARLINK-3446,PAYLOAD,2022-10-10 01:13:07,15.08850612,0.0001898,53.2174,155.5082,47.353,312.7622,0.0013528,0.00021314,0.0,0 STARLINK-3446,1 51747U 22016AK  22283.05078092  .00021314  00000-0  13528-2 0  9995,2 51747  53.2174 155.5082 0001898  47.3530 312.7622 15.08850612 36493,6917.848000000001,95.437,541.026,538.4,0.0
51747.0,STARLINK-3446,PAYLOAD,2022-10-10 12:20:49,15.08859614,0.0001935,53.2169,153.4269,46.6943,313.421,0.00091985,0.0001439,0.0,0 STARLINK-3446,1 51747U 22016AK  22283.51445780  .00014390  00000-0  91985-3 0  9998,2 51747  53.2169 153.4269 0001935  46.6943 313.4210 15.08859614 35438,6917.82,95.436,541.024,538.347,0.0
51747.0,STARLINK-3446,PAYLOAD,2022-10-10 18:42:21,15.08858664,0.0001959,53.2167,152.2372,44.6308,315.4842,0.00062375,9.658e-05,0.0,0 STARLINK-3446,1 51747U 22016AK  22283.77941507  .00009658  00000-0  62375-3 0  9996,2 51747  53.2167 152.2372 0001959  44.6308 315.4842 15.08858664 36604,6917.823,95.436,541.044,538.3330000000002,0.0
51747.0,STARLINK-3446,PAYLOAD,2022-10-10 21:53:07,15.08859354,0.0001943999999999,53.217,151.6423,47.1915,312.9241,0.00050204,7.715e-05,0.0,0 STARLINK-3446,1 51747U 22016AK  22283.91189349  .00007715  00000-0  50204-3 0  9990,2 51747  53.2170 151.6423 0001944  47.1915 312.9241 15.08859354 35492,6917.821,95.436,541.031,538.341,0.0
51747.0,STARLINK-3446,PAYLOAD,2022-10-11 01:03:53,15.08854825,0.0001874,53.2174,151.0487,47.1514,312.9636,0.00025527,3.778e-05,0.0,0 STARLINK-3446,1 51747U 22016AK  22284.04437300  .00003778  00000-0  25527-3 0  9993,2 51747  53.2174 151.0487 0001874  47.1514 312.9636 15.08854825 35516,6917.835,95.437,540.996,538.404,0.0
51747.0,STARLINK-3446,PAYLOAD,2022-10-11 18:33:09,15.08830901,0.0002089,53.2174,147.7759,48.2773,311.8398,-0.00016885,-2.974e-05,0.0,0 STARLINK-3446,1 51747U 22016AK  22284.77302148 -.00002974  00000-0 -16885-3 0  9990,2 51747  53.2174 147.7759 0002089  48.2773 311.8398 15.08830901 36757,6917.908,95.438,541.2180000000002,538.328,0.0
51747.0,STARLINK-3446,PAYLOAD,2022-10-12 18:23:55,15.08854431,0.0001889,53.2172,143.3162,44.2331,315.8812,0.00069518,0.00010797,0.0,0 STARLINK-3446,1 51747U 22016AK  22285.76661693  .00010797  00000-0  69518-3 0  9994,2 51747  53.2172 143.3162 0001889  44.2331 315.8812 15.08854431 36904,6917.8359999999975,95.437,541.008,538.395,0.0
51747.0,STARLINK-3446,PAYLOAD,2022-10-13 11:53:09,15.08851153,0.0002,53.2172,140.0452,46.8029,313.3129,0.00028872,4.311e-05,0.0,0 STARLINK-3446,1 51747U 22016AK  22286.49525382  .00004311  00000-0  28872-3 0  9992,2 51747  53.2172 140.0452 0002000  46.8029 313.3129 15.08851153 35886,6917.846,95.437,541.095,538.328,0.0
51747.0,STARLINK-3446,PAYLOAD,2022-10-13 15:03:56,15.08852028,0.0002023,53.2169,139.4501,49.3003,310.8165,0.0003255,4.898e-05,0.0,0 STARLINK-3446,1 51747U 22016AK  22286.62773271  .00004898  00000-0  32550-3 0  9997,2 51747  53.2169 139.4501 0002023  49.3003 310.8165 15.08852028 37037,6917.844,95.437,541.1080000000002,538.309,0.0
51747.0,STARLINK-3446,PAYLOAD,2022-10-13 21:25:28,15.08853355,0.0001968,53.217,138.2601,50.9067,309.21,0.00030018,4.494e-05,0.0,0 STARLINK-3446,1 51747U 22016AK  22286.89268997  .00004494  00000-0  30018-3 0  9999,2 51747  53.2170 138.2601 0001968  50.9067 309.2100 15.08853355 35945,6917.84,95.437,541.066,538.3430000000002,0.0
51747.0,STARLINK-3446,PAYLOAD,2022-10-14 00:36:14,15.0885041,0.0001808,53.2181,137.6675,44.6262,315.4876,0.00012477,1.699e-05,0.0,0 STARLINK-3446,1 51747U 22016AK  22287.02516959  .00001699  00000-0  12477-3 0  9992,2 51747  53.2181 137.6675 0001808  44.6262 315.4876 15.08850410 35961,6917.849,95.437,540.964,538.4630000000002,0.0
51747.0,STARLINK-3446,PAYLOAD,2022-10-14 16:30:06,15.08842411,0.0001955999999999,53.2153,134.6943,59.4972,300.6213,-2.4326e-05,-6.75e-06,0.0,0 STARLINK-3446,1 51747U 22016AK  22287.68757050 -.00000675  00000-0 -24326-4 0  9995,2 51747  53.2153 134.6943 0001956  59.4972 300.6213 15.08842411 37191,6917.873000000001,95.437,541.091,538.385,0.0
51747.0,STARLINK-3446,PAYLOAD,2022-10-15 13:10:06,15.08838946,0.0002036,53.2173,130.8278,43.5576,316.5577,-9.4695e-05,-1.795e-05,0.0,0 STARLINK-3446,1 51747U 22016AK  22288.54868865 -.00001795  00000-0 -94695-4 0  9998,2 51747  53.2173 130.8278 0002036  43.5576 316.5577 15.08838946 36192,6917.884,95.438,541.1569999999998,538.34,0.0
51747.0,STARLINK-3446,PAYLOAD,2022-10-15 17:56:16,15.08842099,0.0001942,53.2179,129.9357,48.24800000000001,311.8678,-3.2266e-05,-8.02e-06,0.0,0 STARLINK-3446,1 51747U 22016AK  22288.74740792 -.00000802  00000-0 -32266-4 0  9992,2 51747  53.2179 129.9357 0001942  48.2480 311.8678 15.08842099 37359,6917.874,95.437,541.082,538.396,0.0
51747.0,STARLINK-3446,PAYLOAD,2022-10-16 13:00:54,15.08833706,0.0001771999999999,53.2186,126.3671,49.3421,310.7725,2.2771e-05,7.4e-07,0.0,0 STARLINK-3446,1 51747U 22016AK  22289.54229669  .00000074  00000-0  22771-4 0  9995,2 51747  53.2186 126.3671 0001772  49.3421 310.7725 15.08833706 37474,6917.9,95.438,540.99,538.539,0.0
51747.0,STARLINK-3446,PAYLOAD,2022-10-16 19:22:26,15.08838336,0.0001916999999999,53.2186,125.1777,47.4501,312.6653,3.0229e-05,1.93e-06,0.0,0 STARLINK-3446,1 51747U 22016AK  22289.80725418  .00000193  00000-0  30229-4 0  9996,2 51747  53.2186 125.1777 0001917  47.4501 312.6653 15.08838336 36381,6917.885,95.438,541.077,538.424,0.0
51747.0,STARLINK-3446,PAYLOAD,2022-10-17 11:16:17,15.08841266,0.0001724,53.2189,122.2037,48.1738,311.9401,7.5867e-06,-1.67e-06,0.0,0 STARLINK-3446,1 51747U 22016AK  22290.46965183 -.00000167  00000-0  75867-5 0  9995,2 51747  53.2189 122.2037 0001724  48.1738 311.9401 15.08841266 37613,6917.877,95.437,540.934,538.549,0.0
51747.0,STARLINK-3446,PAYLOAD,2022-10-17 19:13:13,15.08837995,0.0001875,53.2185,120.7168,47.7497,312.3654,-4.1451000000000014e-05,-9.48e-06,0.0,0 STARLINK-3446,1 51747U 22016AK  22290.80085626 -.00000948  00000-0 -41451-4 0  9997,2 51747  53.2185 120.7168 0001875  47.7497 312.3654 15.08837995 36530,6917.887,95.438,541.049,538.4540000000002,0.0
51747.0,STARLINK-3446,PAYLOAD,2022-10-18 07:56:20,15.08794633,0.0001868,53.2186,118.3382,59.3302,300.7874,0.00076154,0.00011838,0.0,0 STARLINK-3446,1 51747U 22016AK  22291.33079533  .00011838  00000-0  76154-3 0  9991,2 51747  53.2186 118.3382 0001868  59.3302 300.7874 15.08794633 36613,6918.019,95.44,541.1759999999998,538.592,0.0
51747.0,STARLINK-3446,PAYLOAD,2022-10-18 12:42:28,15.08836322,0.0001899999999999,53.2185,117.446,47.427,312.6882,0.00014296,1.988e-05,0.0,0 STARLINK-3446,1 51747U 22016AK  22291.52949722  .00001988  00000-0  14296-3 0  9992,2 51747  53.2185 117.4460 0001900  47.4270 312.6882 15.08836322 37779,6917.892,95.438,541.071,538.442,0.0
